[{"OBJECT_NAME":"PHISAT 2","OBJECT_ID":"2024-149C","EPOCH":"2026-03-09T18:55:12.732384","MEAN_MOTION":15.29548632,"ECCENTRICITY":0.00011753,"INCLINATION":97.3806,"RA_OF_ASC_NODE":148.6498,"ARG_OF_PERICENTER":168.623,"MEAN_ANOMALY":191.5037,"EPHEMERIS_TYPE":0,"CLASSIFICATION_TYPE":"U","NORAD_CAT_ID":60470,"ELEMENT_SET_NO":999,"REV_AT_EPOCH":8679,"BSTAR":0.00031420974,"MEAN_MOTION_DOT":8.925e-5,"MEAN_MOTION_DDOT":0},{"OBJECT_NAME":"STARLINK-32666","OBJECT_ID":"2024-229Y","EPOCH":"2026-03-09T22:18:51.821280","MEAN_MOTION":15.27594617,"ECCENTRICITY":0.0002793,"INCLINATION":43.0048,"RA_OF_ASC_NODE":269.7347,"ARG_OF_PERICENTER":257.7791,"MEAN_ANOMALY":102.2748,"EPHEMERIS_TYPE":0,"CLASSIFICATION_TYPE":"U","NORAD_CAT_ID":62214,"ELEMENT_SET_NO":999,"REV_AT_EPOCH":7059,"BSTAR":0.0013159306,"MEAN_MOTION_DOT":0.00036145,"MEAN_MOTION_DDOT":0}]
